BEIDOU 17               
1 40549U 15019A   21170.07725498 -.00000184  00000-0  00000-0 0  9995
2 40549  52.4941 316.9702 0038517 186.9071 247.3339  1.00265436 22791
THOR 7                  
1 40613U 15022A   21170.27080243 -.00000001  00000-0  00000-0 0  9993
2 40613   0.0417 144.3196 0002661 301.3599 278.8661  1.00271406 22532
TURKMENALEM52E/MONACOSAT
1 40617U 15023A   21170.50765462  .00000111  00000-0  00000-0 0  9998
2 40617   0.0172  22.0603 0002728  60.1769  60.4769  1.00269501 22551
DIRECTV 15              
1 40663U 15026A   21170.56711969 -.00000095  00000-0  00000-0 0  9993
2 40663   0.0215  75.0171 0000989 133.8020 160.4985  1.00270837 22176
SKY MEXICO-1            
1 40664U 15026B   21170.48799426 -.00000227  00000-0  00000-0 0  9996
2 40664   0.0159 352.3284 0002155  92.2477 280.2613  1.00271710 22182
METEOSAT-11 (MSG-4)     
1 40732U 15034A   21170.28192306  .00000002  00000-0  00000-0 0  9993
2 40732   0.1255 158.8290 0000607 255.7693 314.4906  1.00266536 21733
STAR ONE C4             
1 40733U 15034B   21169.47848862 -.00000257  00000-0  00000-0 0  9991
2 40733   0.0554  72.0677 0002850 357.2038 299.9126  1.00272682 21723
WGS F7 (USA 263)        
1 40746U 15036A   21170.49095804  .00000024  00000-0  00000-0 0  9992
2 40746   0.0285 308.2522 0000103   3.0959 308.2921  1.00267578 21598
INTELSAT 34 (IS-34)     
1 40874U 15039A   21170.48619457 -.00000278  00000-0  00000-0 0  9994
2 40874   0.0177 305.2586 0000793  67.5825  14.6262  1.00272176 21348
EUTELSAT 8 WEST B       
1 40875U 15039B   21170.42393984 -.00000058  00000-0  00000-0 0  9999
2 40875   0.0644  19.6097 0005817  62.6615 330.1976  1.00271825 21366
GSAT-6                  
1 40880U 15041A   21170.51376112 -.00000153  00000-0  00000-0 0  9998
2 40880   0.0781 276.2092 0003309 198.3453  60.8142  1.00273742 21341
INMARSAT 5-F3           
1 40882U 15042A   21170.38464303  .00000057  00000-0  00000-0 0  9998
2 40882   0.0182  16.1297 0000384  79.2930 130.4630  1.00271307 21287
MUOS-4                  
1 40887U 15044A   21170.51227811 -.00000088  00000-0  00000-0 0  9996
2 40887   2.6540 354.2441 0054362   3.7564 169.3951  1.00271450 21270
TJS-1                   
1 40892U 15046A   21170.52815505 -.00000149  00000-0  00000-0 0  9996
2 40892   0.0797 264.2897 0004289 139.4307 209.3227  1.00274059 21271
EXPRESS-AM8             
1 40895U 15048A   21170.42271853 -.00000104  00000-0  00000-0 0  9993
2 40895   0.0407 197.1818 0000360 255.9829 312.8783  1.00271594 21096
BEIDOU 20               
1 40938U 15053A   21170.07618669 -.00000161  00000-0  00000-0 0  9991
2 40938  52.0610 280.0449 0047141 191.9698 278.9854  1.00282677 21062
SKY MUSTER 1 (NBN1A)    
1 40940U 15054A   21170.52527626 -.00000271  00000-0  00000-0 0  9999
2 40940   0.0165 322.0925 0001796 125.9716 149.2601  1.00272196 20977
ARSAT 2                 
1 40941U 15054B   21170.40937142 -.00000217  00000-0  00000-0 0  9995
2 40941   0.0193  68.3245 0001894  11.2575 254.6357  1.00272243 21033
MORELOS 3               
1 40946U 15056A   21170.55755608 -.00000038  00000-0  00000-0 0  9994
2 40946   4.2474 330.7186 0002285 177.6179 207.2792  1.00270975 21002
APSTAR 9                
1 40982U 15059A   21170.60535433 -.00000259  00000-0  00000-0 0  9990
2 40982   0.0626 102.0898 0001731 339.1204 186.7443  1.00269497 20868
TURKSAT 4B              
1 40984U 15060A   21170.50730566  .00000122  00000-0  00000-0 0  9995
2 40984   0.0334  87.5691 0002084   7.2244  45.7756  1.00271228 20825
CHINASAT 2C (ZX 2C)     
1 41021U 15063A   21168.83452067 -.00000316  00000-0  00000-0 0  9997
2 41021   0.0565 121.0958 0002388 329.6292 219.3700  1.00267854 20700
GSAT-15                 
1 41028U 15065A   21170.44417858 -.00000251  00000-0  00000-0 0  9993
2 41028   0.0734 269.9638 0004157 165.0058  86.3002  1.00271649 20524
BADR-7 (ARABSAT-6B)     
1 41029U 15065B   21170.50250769  .00000152  00000-0  00000-0 0  9996
2 41029   0.0363 240.5329 0003210 323.7539 270.5409  1.00272569 20486
LAOSAT 1                
1 41034U 15067A   21170.35604878 -.00000336  00000-0  00000-0 0  9996
2 41034   0.0028 210.6464 0001503 210.3156 103.5316  1.00270274 20570
TELSTAR 12V             
1 41036U 15068A   21170.39980043 -.00000111  00000-0  00000-0 0  9995
2 41036   0.0186 337.1248 0002392 103.7370 315.9238  1.00274803 20330
CHINASAT 1C (ZX 1C)     
1 41103U 15073A   21170.51349941 -.00000143  00000-0  00000-0 0  9991
2 41103   2.4989  88.8974 0002283 355.5845  89.6869  1.00270726 20370
ELEKTRO-L 2             
1 41105U 15074A   21170.42263130 -.00000108  00000-0  00000-0 0  9990
2 41105   2.0881  92.4678 0001782  45.4220 267.6338  1.00273011 20229
COSMOS 2513             
1 41121U 15075A   21170.42341059 -.00000131  00000-0  00000-0 0  9992
2 41121   0.0740 106.1130 0002739 356.6149  37.8109  1.00270592 20241
EXPRESS-AMU1            
1 41191U 15082A   21170.28916365  .00000163  00000-0  00000-0 0  9993
2 41191   0.0114  54.7138 0002878  38.1894 315.0155  1.00271985 19980
GAOFEN 4                
1 41194U 15083A   21169.58528150 -.00000328  00000-0  00000-0 0  9993
2 41194   0.0615  80.1800 0001270 275.9622 227.2828  1.00275114 20197
BELINTERSAT-1           
1 41238U 16001A   21170.50756737  .00000113  00000-0  00000-0 0  9992
2 41238   0.0288 109.7024 0002655  36.0422 356.4359  1.00274542 19972
IRNSS-1E                
1 41241U 16003A   21167.72013302 -.00000293  00000-0  00000-0 0  9992
2 41241  29.1736  90.3736 0018840 181.8105   3.9090  1.00266760 19767
EUTELSAT 9B             
1 41310U 16005A   21170.39100723  .00000068  00000-0  10000-3 0  9995
2 41310   0.0553  77.1618 0000870 218.6430 121.7832  1.00267346 19826
SES-9                   
1 41380U 16013A   21169.62387797 -.00000338  00000-0  00000-0 0  9990
2 41380   0.0259 294.0527 0002039 151.1901 154.7289  1.00270407 19147
EUTELSAT 65 WEST A      
1 41382U 16014A   21170.41251192 -.00000269  00000-0  00000-0 0  9994
2 41382   0.0517  28.5370 0002110  61.9003 260.7336  1.00270451 19255
IRNSS-1F                
1 41384U 16015A   21170.21665341  .00000169  00000-0  00000-0 0  9998
2 41384   1.9464 187.5455 0019845 189.2954   1.1999  1.00271725 19370
BEIDOU IGSO-6           
1 41434U 16021A   21170.45906459 -.00000183  00000-0  00000-0 0  9992
2 41434  57.5641  56.6209 0038052 214.2109 258.8083  1.00269008 19191
IRNSS-1G                
1 41469U 16027A   21170.52309536 -.00000325  00000-0  00000-0 0  9995
2 41469   1.9272 191.1291 0006897 265.7023 128.9717  1.00270580 18890
JCSAT-2B                
1 41471U 16028A   21169.62584095 -.00000158  00000-0  00000-0 0  9997
2 41471   0.0134   3.2861 0001854  91.6171 191.4771  1.00271026 18828
THAICOM 8               
1 41552U 16031A   21170.51297601 -.00000114  00000-0  00000-0 0  9997
2 41552   0.0939  76.8048 0004614 354.8617  99.4852  1.00269941 18437
INTELSAT 31 (IS-31)     
1 41581U 16035A   21169.39201675 -.00000143  00000-0  00000-0 0  9995
2 41581   0.0132 273.1564 0002073 303.8689  95.8826  1.00271464 18309
BEIDOU-2 G7             
1 41586U 16037A   21170.44392706 -.00000347  00000-0  00000-0 0  9992
2 41586   1.7036  67.1513 0009584  19.0694  91.9963  1.00266916 18503
ABS-2A (MONGOLSAT-1)    
1 41588U 16038A   21170.23521904 -.00000076  00000-0  00000-0 0  9995
2 41588   0.0187 342.0054 0002573  32.2017  52.8730  1.00268449 18417
EUTELSAT 117 WEST B     
1 41589U 16038B   21170.46486264 -.00000004  00000-0  00000-0 0  9991
2 41589   0.0156 160.9612 0000456   2.1749 155.1214  1.00272816 18380
BRISAT                  
1 41591U 16039A   21170.46835885 -.00000190  00000-0  00000-0 0  9998
2 41591   0.0201 346.3937 0002184  95.0665 145.5624  1.00270652 18331
ECHOSTAR 18             
1 41592U 16039B   21170.30466302 -.00000275  00000-0  00000-0 0  9990
2 41592   0.0181   7.0480 0001657  78.6374 230.3865  1.00270183 18341
MUOS-5                  
1 41622U 16041A   21170.56384215 -.00000113  00000-0  00000-0 0  9998
2 41622   6.4449 303.9680 0200578 225.5137 196.4858  1.00270862 18804
TIANTONG-1 1            
1 41725U 16048A   21170.51751227 -.00000313  00000-0  00000-0 0  9997
2 41725   2.5390 343.7726 0004346  94.1707 117.7453  1.00271274 17984
JCSAT-16                
1 41729U 16050A   21170.35604878 -.00000350  00000-0  00000-0 0  9996
2 41729   0.0465  83.5650 0000905 160.8323 275.5372  1.00264893 17781
USA 271                 
1 41745U 16052B   21153.45819031 -.00000369  00000-0  00000+0 0  9996
2 41745   9.8711  56.9555 0918615 144.4343 154.8545  1.00399259   287
INTELSAT 36 (IS-36)     
1 41747U 16053A   21169.43425959 -.00000017  00000-0  00000-0 0  9997
2 41747   0.0102   5.7863 0002300   8.8984 117.0253  1.00270431 17677
INTELSAT 33E (IS-33E)   
1 41748U 16053B   21170.50922486  .00000056  00000-0  00000-0 0  9997
2 41748   0.0199  15.1665 0001858  64.6692  71.4302  1.00270617 17968
INSAT-3DR               
1 41752U 16054A   21170.51201640 -.00000070  00000-0  00000-0 0  9993
2 41752   0.0977 101.1640 0009351 169.8766 255.2464  1.00270786 17522
GSAT-18                 
1 41793U 16060A   21170.32202257 -.00000070  00000-0  00000-0 0  9999
2 41793   0.0715 104.1642 0003092 311.3608  42.1601  1.00271954 17251
SKY MUSTER 2 (NBN1B)    
1 41794U 16060B   21169.63521479 -.00000237  00000-0  00000-0 0  9997
2 41794   0.0181 326.1384 0001647 121.2375 193.1865  1.00271981 17227
HIMAWARI-9              
1 41836U 16064A   21170.45357105 -.00000268  00000-0  00000-0 0  9997
2 41836   0.0291  96.4746 0001481  17.5036  97.9529  1.00270207 16904
SHIJIAN-17 (SJ-17)      
1 41838U 16065A   21170.69637687 -.00000356  00000-0  00000+0 0  9999
2 41838   1.1279  92.9923 0005521 359.4394 183.8913  1.00267596 16949
GOES 16                 
1 41866U 16071A   21170.33875375 -.00000241  00000-0  00000-0 0  9990
2 41866   0.0826 100.1825 0001174  17.3313 197.0052  1.00275931 16820
